ZHONGXING-6D            
1 52255U 22038A   26032.28716300 -.00000363  00000+0  00000+0 0  9995
2 52255   0.0462 245.4630 0002764  55.4127  59.0596  1.00270820 14065
NILESAT 301             
1 52817U 22061A   26032.91720994 -.00000068  00000+0  00000+0 0  9991
2 52817   0.0471 353.3035 0005795 333.5349 128.4533  1.00272094 13381
CMS-02 (GSAT 24)        
1 52903U 22067A   26032.93497671 -.00000174  00000+0  00000+0 0  9996
2 52903   0.0057   8.5042 0004288 276.3976 266.8017  1.00271754 13252
MEASAT 3D               
1 52904U 22067B   26032.93671006 -.00000251  00000+0  00000+0 0  9999
2 52904   0.0549 296.2034 0003839  20.3764 244.2416  1.00270368 13296
SES-22                  
1 52933U 22071A   26032.78863972  .00000094  00000+0  00000+0 0  9998
2 52933   0.0085  42.8003 0001121 267.5213 326.5560  1.00273076  6161
WFOV (USA 332)          
1 52940U 22073A   26032.94217009 -.00000373  00000+0  00000+0 0  9991
2 52940   3.3638  80.3015 0002228 180.2902 329.9506  1.00268373 13017
TIANLIAN 2-03           
1 53100U 22078A   26032.92067662  .00000062  00000+0  00000+0 0  9995
2 53100   0.3285  70.4499 0003572 236.7191 166.9523  1.00271421 13192
SBIRS GEO-6 (USA 336)   
1 53355U 22092A   26032.92667580 -.00000298  00000+0  00000+0 0  9990
2 53355   3.4905 315.4146 0002442 350.4059 298.8797  1.00271140 12870
EUTELSAT KONNECT VHTS   
1 53765U 22110A   26032.90947442  .00000006  00000+0  00000+0 0  9998
2 53765   0.0587  99.8727 0003165 195.9987 166.3150  1.00268784  5488
ZHONGXING-1E            
1 53813U 22112A   26032.93463005 -.00000159  00000+0  00000+0 0  9995
2 53813   0.0616 262.6117 0004340  21.4705 265.8692  1.00273229 12490
SES-20                  
1 53960U 22123A   26032.61282494 -.00000110  00000+0  00000+0 0  9993
2 53960   0.0134  79.9724 0001011 346.0294 183.2942  1.00269953 12177
SES-21                  
1 53961U 22123B   26032.81225531  .00000060  00000+0  00000+0 0  9998
2 53961   0.0248  42.4929 0000889 275.0162 335.8917  1.00270086  5856
GALAXY 33 (G-33)        
1 54026U 22128A   26032.94644388  .00000069  00000+0  00000+0 0  9994
2 54026   0.0142 335.3693 0002197 324.2604  40.1952  1.00274237 12389
GALAXY 34 (G-34)        
1 54027U 22128B   26032.47169650  .00000046  00000+0  00000+0 0  9992
2 54027   0.0178  83.9813 0001650 259.9244 188.5755  1.00301558 12550
ANGOSAT 2               
1 54033U 22131A   26032.56645802  .00000125  00000+0  00000+0 0  9999
2 54033   0.0127 140.3020 0000314 313.2928 265.0652  1.00271367 12111
EUTELSAT HOTBIRD 13F    
1 54048U 22134A   26032.92110996  .00000077  00000+0  00000+0 0  9995
2 54048   0.0562 279.0990 0002241  76.8405 120.7421  1.00271613 12024
LDPE-2                  
1 54219U 22144A   26032.78521587 -.00000009  00000+0  00000+0 0  9998
2 54219   5.3138  64.5649 0000851 271.8076 125.3735  1.01011133 10482
