[{"OBJECT_NAME":"ZHONGXING-6D","OBJECT_ID":"2022-038A","EPOCH":"2026-02-01T06:53:30.883200","MEAN_MOTION":1.0027082,"ECCENTRICITY":0.00027643,"INCLINATION":0.0462,"RA_OF_ASC_NODE":245.463,"ARG_OF_PERICENTER":55.4127,"MEAN_ANOMALY":59.0596,"EPHEMERIS_TYPE":0,"CLASSIFICATION_TYPE":"U","NORAD_CAT_ID":52255,"ELEMENT_SET_NO":999,"REV_AT_EPOCH":1406,"BSTAR":0,"MEAN_MOTION_DOT":-3.63e-6,"MEAN_MOTION_DDOT":0},{"OBJECT_NAME":"NILESAT 301","OBJECT_ID":"2022-061A","EPOCH":"2026-02-01T22:00:46.938816","MEAN_MOTION":1.00272094,"ECCENTRICITY":0.00057954,"INCLINATION":0.0471,"RA_OF_ASC_NODE":353.3035,"ARG_OF_PERICENTER":333.5349,"MEAN_ANOMALY":128.4533,"EPHEMERIS_TYPE":0,"CLASSIFICATION_TYPE":"U","NORAD_CAT_ID":52817,"ELEMENT_SET_NO":999,"REV_AT_EPOCH":1338,"BSTAR":0,"MEAN_MOTION_DOT":-6.8e-7,"MEAN_MOTION_DDOT":0},{"OBJECT_NAME":"CMS-02 (GSAT 24)","OBJECT_ID":"2022-067A","EPOCH":"2026-02-01T22:26:21.987744","MEAN_MOTION":1.00271754,"ECCENTRICITY":0.00042887,"INCLINATION":0.0057,"RA_OF_ASC_NODE":8.5042,"ARG_OF_PERICENTER":276.3976,"MEAN_ANOMALY":266.8017,"EPHEMERIS_TYPE":0,"CLASSIFICATION_TYPE":"U","NORAD_CAT_ID":52903,"ELEMENT_SET_NO":999,"REV_AT_EPOCH":1325,"BSTAR":0,"MEAN_MOTION_DOT":-1.74e-6,"MEAN_MOTION_DDOT":0},{"OBJECT_NAME":"MEASAT 3D","OBJECT_ID":"2022-067B","EPOCH":"2026-02-01T22:28:51.749184","MEAN_MOTION":1.00270368,"ECCENTRICITY":0.00038398,"INCLINATION":0.0549,"RA_OF_ASC_NODE":296.2034,"ARG_OF_PERICENTER":20.3764,"MEAN_ANOMALY":244.2416,"EPHEMERIS_TYPE":0,"CLASSIFICATION_TYPE":"U","NORAD_CAT_ID":52904,"ELEMENT_SET_NO":999,"REV_AT_EPOCH":1329,"BSTAR":0,"MEAN_MOTION_DOT":-2.51e-6,"MEAN_MOTION_DDOT":0},{"OBJECT_NAME":"SES-22","OBJECT_ID":"2022-071A","EPOCH":"2026-02-01T18:55:38.471808","MEAN_MOTION":1.00273076,"ECCENTRICITY":0.00011211,"INCLINATION":0.0085,"RA_OF_ASC_NODE":42.8003,"ARG_OF_PERICENTER":267.5213,"MEAN_ANOMALY":326.556,"EPHEMERIS_TYPE":0,"CLASSIFICATION_TYPE":"U","NORAD_CAT_ID":52933,"ELEMENT_SET_NO":999,"REV_AT_EPOCH":616,"BSTAR":0,"MEAN_MOTION_DOT":9.4e-7,"MEAN_MOTION_DDOT":0},{"OBJECT_NAME":"WFOV (USA 332)","OBJECT_ID":"2022-073A","EPOCH":"2026-02-01T22:36:43.495776","MEAN_MOTION":1.00268373,"ECCENTRICITY":0.00022282,"INCLINATION":3.3638,"RA_OF_ASC_NODE":80.3015,"ARG_OF_PERICENTER":180.2902,"MEAN_ANOMALY":329.9506,"EPHEMERIS_TYPE":0,"CLASSIFICATION_TYPE":"U","NORAD_CAT_ID":52940,"ELEMENT_SET_NO":999,"REV_AT_EPOCH":1301,"BSTAR":0,"MEAN_MOTION_DOT":-3.73e-6,"MEAN_MOTION_DDOT":0},{"OBJECT_NAME":"TIANLIAN 2-03","OBJECT_ID":"2022-078A","EPOCH":"2026-02-01T22:05:46.459968","MEAN_MOTION":1.00271421,"ECCENTRICITY":0.0003572,"INCLINATION":0.3285,"RA_OF_ASC_NODE":70.4499,"ARG_OF_PERICENTER":236.7191,"MEAN_ANOMALY":166.9523,"EPHEMERIS_TYPE":0,"CLASSIFICATION_TYPE":"U","NORAD_CAT_ID":53100,"ELEMENT_SET_NO":999,"REV_AT_EPOCH":1319,"BSTAR":0,"MEAN_MOTION_DOT":6.2e-7,"MEAN_MOTION_DDOT":0},{"OBJECT_NAME":"SBIRS GEO-6 (USA 336)","OBJECT_ID":"2022-092A","EPOCH":"2026-02-01T22:14:24.789120","MEAN_MOTION":1.0027114,"ECCENTRICITY":0.00024425,"INCLINATION":3.4905,"RA_OF_ASC_NODE":315.4146,"ARG_OF_PERICENTER":350.4059,"MEAN_ANOMALY":298.8797,"EPHEMERIS_TYPE":0,"CLASSIFICATION_TYPE":"U","NORAD_CAT_ID":53355,"ELEMENT_SET_NO":999,"REV_AT_EPOCH":1287,"BSTAR":0,"MEAN_MOTION_DOT":-2.98e-6,"MEAN_MOTION_DDOT":0},{"OBJECT_NAME":"EUTELSAT KONNECT VHTS","OBJECT_ID":"2022-110A","EPOCH":"2026-02-01T21:49:38.589888","MEAN_MOTION":1.00268784,"ECCENTRICITY":0.00031655,"INCLINATION":0.0587,"RA_OF_ASC_NODE":99.8727,"ARG_OF_PERICENTER":195.9987,"MEAN_ANOMALY":166.315,"EPHEMERIS_TYPE":0,"CLASSIFICATION_TYPE":"U","NORAD_CAT_ID":53765,"ELEMENT_SET_NO":999,"REV_AT_EPOCH":548,"BSTAR":0,"MEAN_MOTION_DOT":6.0e-8,"MEAN_MOTION_DDOT":0},{"OBJECT_NAME":"ZHONGXING-1E","OBJECT_ID":"2022-112A","EPOCH":"2026-02-01T22:25:52.036320","MEAN_MOTION":1.00273229,"ECCENTRICITY":0.00043402,"INCLINATION":0.0616,"RA_OF_ASC_NODE":262.6117,"ARG_OF_PERICENTER":21.4705,"MEAN_ANOMALY":265.8692,"EPHEMERIS_TYPE":0,"CLASSIFICATION_TYPE":"U","NORAD_CAT_ID":53813,"ELEMENT_SET_NO":999,"REV_AT_EPOCH":1249,"BSTAR":0,"MEAN_MOTION_DOT":-1.59e-6,"MEAN_MOTION_DDOT":0},{"OBJECT_NAME":"SES-20","OBJECT_ID":"2022-123A","EPOCH":"2026-02-01T14:42:28.074816","MEAN_MOTION":1.00269953,"ECCENTRICITY":0.00010113,"INCLINATION":0.0134,"RA_OF_ASC_NODE":79.9724,"ARG_OF_PERICENTER":346.0294,"MEAN_ANOMALY":183.2942,"EPHEMERIS_TYPE":0,"CLASSIFICATION_TYPE":"U","NORAD_CAT_ID":53960,"ELEMENT_SET_NO":999,"REV_AT_EPOCH":1217,"BSTAR":0,"MEAN_MOTION_DOT":-1.1e-6,"MEAN_MOTION_DDOT":0},{"OBJECT_NAME":"SES-21","OBJECT_ID":"2022-123B","EPOCH":"2026-02-01T19:29:38.858784","MEAN_MOTION":1.00270086,"ECCENTRICITY":8.892e-5,"INCLINATION":0.0248,"RA_OF_ASC_NODE":42.4929,"ARG_OF_PERICENTER":275.0162,"MEAN_ANOMALY":335.8917,"EPHEMERIS_TYPE":0,"CLASSIFICATION_TYPE":"U","NORAD_CAT_ID":53961,"ELEMENT_SET_NO":999,"REV_AT_EPOCH":585,"BSTAR":0,"MEAN_MOTION_DOT":6.0e-7,"MEAN_MOTION_DDOT":0},{"OBJECT_NAME":"GALAXY 33 (G-33)","OBJECT_ID":"2022-128A","EPOCH":"2026-02-01T22:42:52.751232","MEAN_MOTION":1.00274237,"ECCENTRICITY":0.00021975,"INCLINATION":0.0142,"RA_OF_ASC_NODE":335.3693,"ARG_OF_PERICENTER":324.2604,"MEAN_ANOMALY":40.1952,"EPHEMERIS_TYPE":0,"CLASSIFICATION_TYPE":"U","NORAD_CAT_ID":54026,"ELEMENT_SET_NO":999,"REV_AT_EPOCH":1238,"BSTAR":0,"MEAN_MOTION_DOT":6.9e-7,"MEAN_MOTION_DDOT":0},{"OBJECT_NAME":"GALAXY 34 (G-34)","OBJECT_ID":"2022-128B","EPOCH":"2026-02-01T11:19:14.577600","MEAN_MOTION":1.00301558,"ECCENTRICITY":0.000165,"INCLINATION":0.0178,"RA_OF_ASC_NODE":83.9813,"ARG_OF_PERICENTER":259.9244,"MEAN_ANOMALY":188.5755,"EPHEMERIS_TYPE":0,"CLASSIFICATION_TYPE":"U","NORAD_CAT_ID":54027,"ELEMENT_SET_NO":999,"REV_AT_EPOCH":1255,"BSTAR":0,"MEAN_MOTION_DOT":4.6e-7,"MEAN_MOTION_DDOT":0},{"OBJECT_NAME":"ANGOSAT 2","OBJECT_ID":"2022-131A","EPOCH":"2026-02-01T13:35:41.972928","MEAN_MOTION":1.00271367,"ECCENTRICITY":3.149e-5,"INCLINATION":0.0127,"RA_OF_ASC_NODE":140.302,"ARG_OF_PERICENTER":313.2928,"MEAN_ANOMALY":265.0652,"EPHEMERIS_TYPE":0,"CLASSIFICATION_TYPE":"U","NORAD_CAT_ID":54033,"ELEMENT_SET_NO":999,"REV_AT_EPOCH":1211,"BSTAR":0,"MEAN_MOTION_DOT":1.25e-6,"MEAN_MOTION_DDOT":0},{"OBJECT_NAME":"EUTELSAT HOTBIRD 13F","OBJECT_ID":"2022-134A","EPOCH":"2026-02-01T22:06:23.900544","MEAN_MOTION":1.00271613,"ECCENTRICITY":0.00022418,"INCLINATION":0.0562,"RA_OF_ASC_NODE":279.099,"ARG_OF_PERICENTER":76.8405,"MEAN_ANOMALY":120.7421,"EPHEMERIS_TYPE":0,"CLASSIFICATION_TYPE":"U","NORAD_CAT_ID":54048,"ELEMENT_SET_NO":999,"REV_AT_EPOCH":1202,"BSTAR":0,"MEAN_MOTION_DOT":7.7e-7,"MEAN_MOTION_DDOT":0},{"OBJECT_NAME":"LDPE-2","OBJECT_ID":"2022-144A","EPOCH":"2026-02-01T18:50:42.651168","MEAN_MOTION":1.01011133,"ECCENTRICITY":8.518e-5,"INCLINATION":5.3138,"RA_OF_ASC_NODE":64.5649,"ARG_OF_PERICENTER":271.8076,"MEAN_ANOMALY":125.3735,"EPHEMERIS_TYPE":0,"CLASSIFICATION_TYPE":"U","NORAD_CAT_ID":54219,"ELEMENT_SET_NO":999,"REV_AT_EPOCH":1048,"BSTAR":0,"MEAN_MOTION_DOT":-9.0e-8,"MEAN_MOTION_DDOT":0}]
